STARLINK-2000_new
1 17595C 21009AZ  21326.14045046 -.00008858  00000-0 -59349-3 0  3268
2 17595  53.0541 243.1198 0002040  64.8246  22.0982 15.06406044    18
STARLINK-2000_old
1 27595C 21009AZ  21325.15564238  .00009217  00000-0  61740-3 0  3252
2 27595  53.0541 247.5406 0002070  64.5994  78.6841 15.06395471    10
